STARLINK-30358          
1 57879U 23144R   25172.98117427  .00000675  00000+0  65057-4 0  9990
2 57879  43.0030 264.0616 0001840 273.5861  86.4771 15.02533976 98403
STARLINK-30436          
1 57880U 23144S   25172.57454098  .00000373  00000+0  42684-4 0  9991
2 57880  43.0040 266.1719 0001515 268.6517  91.4152 15.02535422 98334
STARLINK-30339          
1 57882U 23144U   25172.70416781 -.00000120  00000+0  62147-5 0  9993
2 57882  43.0029 265.4245 0001340 271.1828  88.8860 15.02535593 98356
STARLINK-30282          
1 57883U 23144V   25172.56566051  .00001102  00000+0  96621-4 0  9997
2 57883  43.0035 266.1064 0001476 269.6416  90.4257 15.02536437 98331
STARLINK-30340          
1 57884U 23144W   25172.56122105  .00000078  00000+0  20821-4 0  9996
2 57884  43.0029 266.0646 0001448 275.5777  84.4900 15.02536772 98335
STARLINK-30279          
1 57885U 23144X   25172.56455198  .00000451  00000+0  48437-4 0  9996
2 57885  43.0028 266.0973 0001283 275.3333  84.7363 15.02534922 98275
STARLINK-30465          
1 57891U 23146A   25173.03275665  .00000327  00000+0  39278-4 0  9992
2 57891  43.0038 289.9480 0001502 271.0299  89.0371 15.02534987 97758
STARLINK-30470          
1 57892U 23146B   25172.63056365  .00000837  00000+0  77017-4 0  9991
2 57892  43.0026 292.0890 0001089 259.7837 100.2882 15.02528834 97798
STARLINK-30473          
1 57893U 23146C   25172.60724417  .00000226  00000+0  31859-4 0  9995
2 57893  43.0071 291.8592 0002177 279.6072  80.4525 15.02538544 97585
STARLINK-30443          
1 57894U 23146D   25173.35515678 -.00001376  00000+0 -86806-4 0  9997
2 57894  43.0027 288.0636 0000893 257.6535 102.4207 15.02544694 97852
STARLINK-30467          
1 57895U 23146E   25173.35848962 -.00000114  00000+0  66077-5 0  9990
2 57895  43.0039 288.0880 0001415 273.9074  86.1607 15.02532314 97800
STARLINK-30469          
1 57896U 23146F   25173.01944652  .00001490  00000+0  12531-3 0  9998
2 57896  43.0031 289.8466 0001310 272.2672  87.8021 15.02538395 97805
STARLINK-30474          
1 57897U 23146G   25173.34628020  .00001931  00000+0  15789-3 0  9991
2 57897  43.0039 287.9982 0001244 255.8235 104.2469 15.02552957 97804
STARLINK-30479          
1 57898U 23146H   25172.68039036  .00000716  00000+0  68054-4 0  9995
2 57898  43.0034 291.6019 0001633 265.8445  94.2211 15.02537179 97801
STARLINK-30481          
1 57899U 23146J   25173.00944620  .00001340  00000+0  11433-3 0  9999
2 57899  43.0048 289.7705 0001482 266.2580  93.8093 15.02518706 97644
STARLINK-30457          
1 57900U 23146K   25172.72801885  .00001447  00000+0  12225-3 0  9993
2 57900  43.0040 291.1019 0001309 270.6575  89.4117 15.02520679 96756
STARLINK-30472          
1 57901U 23146L   25173.04262871  .00000762  00000+0  71509-4 0  9996
2 57901  43.0039 289.1564 0001339 272.5269  87.5420 15.02535519 97814
STARLINK-30462          
1 57902U 23146M   25173.33518044 -.00000297  00000+0 -69154-5 0  9994
2 57902  43.0017 287.9120 0001353 258.0439 102.0251 15.02532271 97805
STARLINK-30449          
1 57903U 23146N   25172.77338738 -.00000410  00000+0 -15254-4 0  9990
2 57903  43.0045 290.5732 0001302 266.0834  93.9860 15.02540518 96769
STARLINK-30466          
1 57904U 23146P   25173.33184887 -.00000259  00000+0 -40726-5 0  9992
2 57904  43.0033 287.8896 0001547 274.3039  85.7627 15.02536339 97809
STARLINK-30451          
1 57905U 23146Q   25173.03597122 -.00000150  00000+0  39974-5 0  9992
2 57905  43.0029 289.1080 0001242 270.8491  89.2209 15.02535278 97806
STARLINK-30428          
1 57906U 23146R   25172.66374497 -.00000504  00000+0 -22264-4 0  9996
2 57906  43.0040 291.4743 0001185 259.4806 100.5903 15.02531286 96746
STARLINK-30482          
1 57907U 23146S   25173.32519482  .00001079  00000+0  94879-4 0  9993
2 57907  43.0032 287.8411 0001473 282.4988  77.5690 15.02551846 97488
STARLINK-30464          
1 57908U 23146T   25173.38500719  .00000943  00000+0  84877-4 0  9999
2 57908  43.0033 287.4290 0001335 264.1279  95.9412 15.02534373 97806
STARLINK-30463          
1 57909U 23146U   25172.65708099  .00000330  00000+0  39516-4 0  9990
2 57909  43.0036 291.4270 0001388 271.4774  88.5910 15.02537089 96742
STARLINK-30453          
1 57910U 23146V   25173.38167868  .00000257  00000+0  34115-4 0  9994
2 57910  43.0037 287.4048 0001542 266.7564  93.3102 15.02534543 97817
STARLINK-30478          
1 57911U 23146W   25173.36724870  .00000653  00000+0  63423-4 0  9999
2 57911  43.0040 287.2933 0001310 265.6920  94.3772 15.02536788 98054
STARLINK-30477          
1 57912U 23146X   25172.78004960  .00000531  00000+0  54367-4 0  9998
2 57912  43.0032 290.6298 0001391 266.0300  94.0384 15.02534141 97825
STARLINK-30450          
1 57913U 23147A   25173.36486908  .00000328  00000+0  39376-4 0  9998
2 57913  43.0037 300.9947 0001396 266.9120  93.1563 15.02536792 97341
STARLINK-30483          
1 57914U 23147B   25172.80455685  .00000979  00000+0  47263-4 0  9991
2 57914  43.0018 212.6588 0001217 275.5919  84.4793 15.25908144 98411
STARLINK-30454          
1 57915U 23147C   25173.35823163 -.00001795  00000+0 -11786-3 0  9992
2 57915  43.0036 300.9424 0001190 264.5631  95.5076 15.02523403 97345
STARLINK-30501          
1 57917U 23147E   25172.69010182 -.00000023  00000+0  13390-4 0  9995
2 57917  43.0040 304.5301 0001248 266.6995  93.3705 15.02535072 97357
STARLINK-30499          
1 57918U 23147F   25173.52870494  .00000326  00000+0  21360-4 0  9990
2 57918  43.0001 209.4657 0001229 269.9880  90.0831 15.27576055 98549
STARLINK-30496          
1 57919U 23147G   25172.81639768  .00000641  00000+0  62535-4 0  9998
2 57919  43.0044 303.7590 0001266 270.5056  89.5642 15.02536838 97376
STARLINK-30485          
1 57920U 23147H   25173.41136818  .00000874  00000+0  79755-4 0  9995
2 57920  43.0041 300.4837 0001411 263.4939  96.5743 15.02534723 97467
STARLINK-30492          
1 57921U 23147J   25172.41087315  .00000236  00000+0  32567-4 0  9994
2 57921  43.0036 305.8778 0001316 264.3831  95.6861 15.02533082 97288
STARLINK-30440          
1 57923U 23147L   25172.67345782 -.00000136  00000+0  50148-5 0  9995
2 57923  43.0037 304.4068 0001118 273.7431  86.3284 15.02532415 97351
STARLINK-30487          
1 57924U 23147M   25172.78642827  .00000525  00000+0  53902-4 0  9999
2 57924  43.0027 303.5193 0001301 267.0490  93.0203 15.02535192 97378
STARLINK-30452          
1 57925U 23147N   25173.40138073  .00000500  00000+0  52110-4 0  9996
2 57925  43.0040 300.4098 0001363 265.1012  94.9675 15.02534355 97419
STARLINK-30468          
1 57926U 23147P   25173.06566262 -.00000107  00000+0  71546-5 0  9993
2 57926  43.0039 302.1928 0001223 270.2728  89.7974 15.02534775 97369
STARLINK-30459          
1 57927U 23147Q   25173.46045971  .00001613  00000+0  68132-4 0  9995
2 57927  43.0003 191.6889 0001204 256.1728 103.8990 15.27575388 98639
STARLINK-30448          
1 57928U 23147R   25173.05900313 -.00000466  00000+0 -19406-4 0  9998
2 57928  43.0037 302.1413 0000982 265.9599  94.1131 15.02534136 97317
STARLINK-30476          
1 57930U 23147T   25173.37772727  .00019735  00000+0  12458-2 0  9997
2 57930  43.0029 284.3937 0007300 317.0299  42.9975 15.08728171 97597
STARLINK-30488          
1 57931U 23147U   25173.38806360 -.00000450  00000+0 -18259-4 0  9993
2 57931  43.0043 300.3052 0001259 263.9710  96.0989 15.02532543 97477
STARLINK-30471          
1 57932U 23147V   25172.64015625  .00000157  00000+0  26683-4 0  9990
2 57932  43.0048 304.1526 0001337 270.3431  89.7258 15.02535018 97322
STARLINK-30461          
1 57933U 23147W   25172.71662310  .00000500  00000+0  52096-4 0  9997
2 57933  43.0039 303.8702 0001531 266.2524  93.8143 15.02536343 97330
STARLINK-30458          
1 57934U 23147X   25173.52883986  .00069932  00000+0  17982-2 0  9999
2 57934  42.9914 266.3756 0030115   6.7723 353.3534 15.37917204 97774
STARLINK-30712          
1 57935U 23148A   25173.21418721  .00000309  00000+0  22573-4 0  9995
2 57935  53.1594 154.0849 0001277  86.8989 273.2158 15.30192358 98466
STARLINK-30716          
1 57936U 23148B   25172.98246444 -.00001839  00000+0 -49968-4 0  9998
2 57936  53.1593 155.3905 0001163  89.6302 270.4832 15.30203452 98418
STARLINK-30400          
1 57937U 23148C   25173.34797494  .00000709  00000+0  36077-4 0  9996
2 57937  53.1590 153.4596 0001247  82.4488 277.6655 15.30194818 98484
STARLINK-30710          
1 57938U 23148D   25173.33542103 -.00004737  00000+0 -14789-3 0  9993
2 57938  53.1596 143.5421 0001415  83.5165 276.5997 15.30200859 98603
STARLINK-30714          
1 57939U 23148E   25172.66222122  .00000054  00000+0  13970-4 0  9993
2 57939  53.1595 156.9341 0001260  91.2766 268.8379 15.30185838 98453
STARLINK-30711          
1 57940U 23148F   25172.65905480  .00000265  00000+0  21061-4 0  9993
2 57940  53.1591 156.9350 0001105  95.8885 264.2242 15.30194232 98458
STARLINK-30715          
1 57941U 23148G   25173.21519497  .00000269  00000+0  16709-4 0  9993
2 57941  53.1584 146.2084 0001842 111.4313 248.6888 15.39636931 98577
STARLINK-30455          
1 57942U 23148H   25172.66538074 -.00000784  00000+0 -14342-4 0  9999
2 57942  53.1599 156.9195 0001217  89.7420 270.3720 15.30188953 98458
STARLINK-30456          
1 57943U 23148J   25172.26084620  .00000204  00000+0  19023-4 0  9995
2 57943  53.1588 158.7881 0001135  89.2505 270.8626 15.30195498 98392
STARLINK-30708          
1 57944U 23148K   25172.37142219  .00001171  00000+0  51650-4 0  9993
2 57944  53.1593 158.0599 0001251  83.3773 276.7370 15.30197257 98418
STARLINK-30705          
1 57945U 23148L   25172.38197787  .00000578  00000+0  31650-4 0  9993
2 57945  53.1591 158.1292 0001165  83.7209 276.3925 15.30196763 98413
STARLINK-30704          
1 57946U 23148M   25173.58335648  .00082076  00000+0  49831-2 0  9998
2 57946  53.1579 228.5407 0003042  89.9974 127.7800 15.09795378 97427
